COMMENT,ORIGINATOR,NORAD_CAT_ID,OBJECT_NAME,OBJECT_TYPE,CLASSIFICATION_TYPE,INTLDES,EPOCH,EPOCH_MICROSECONDS,MEAN_MOTION,ECCENTRICITY,INCLINATION,RA_OF_ASC_NODE,ARG_OF_PERICENTER,MEAN_ANOMALY,EPHEMERIS_TYPE,ELEMENT_SET_NO,REV_AT_EPOCH,BSTAR,MEAN_MOTION_DOT,MEAN_MOTION_DDOT,FILE,TLE_LINE0,TLE_LINE1,TLE_LINE2,OBJECT_ID,OBJECT_NUMBER,SEMIMAJOR_AXIS,PERIOD,APOGEE,PERIGEE,DECAYED
"GENERATED VIA SPACETRACK.ORG API","18 SPCS","48904","SPACEBEE-111","PAYLOAD","U","21059AB","2021-08-25 15:04:11","417088","15.12510614","0.0012209","97.5228","5.5804","48.9983","311.2302","0","999","919","0.0001039","0.00001747","0","3103042","0 SPACEBEE-111","1 48904U 21059AB  21237.62790992  .00001747  00000-0  10390-3 0  9996","2 48904  97.5228   5.5804 0012209  48.9983 311.2302 15.12510614  9194","2021-059AB","48904","6906.683","95.206","536.981","520.116","1"
"GENERATED VIA SPACETRACK.ORG API","18 SPCS","48904","SPACEBEE-111","PAYLOAD","U","21059AB","2021-08-25 21:25:15","297024","15.12511306","0.0012185","97.5228","5.8412","48.1473","312.0796","0","999","923","0.00010226","0.00001718","0","3103208","0 SPACEBEE-111","1 48904U 21059AB  21237.89253816  .00001718  00000-0  10226-3 0  9990","2 48904  97.5228   5.8412 0012185  48.1473 312.0796 15.12511306  9231","2021-059AB","48904","6906.681","95.206","536.962","520.131","1"
"GENERATED VIA SPACETRACK.ORG API","18 SPCS","48904","SPACEBEE-111","PAYLOAD","U","21059AB","2021-08-26 08:32:07","91232","15.12512852","0.0012146","97.5228","6.2976","46.6537","313.5703","0","999","930","0.00010457","0.00001759","0","3103463","0 SPACEBEE-111","1 48904U 21059AB  21238.35563763  .00001759  00000-0  10457-3 0  9998","2 48904  97.5228   6.2976 0012146  46.6537 313.5703 15.12512852  9301","2021-059AB","48904","6906.677","95.206","536.931","520.153","1"
"GENERATED VIA SPACETRACK.ORG API","18 SPCS","48904","SPACEBEE-111","PAYLOAD","U","21059AB","2021-08-26 14:53:10","913280","15.12513895","0.0012125","97.5229","6.5584","45.8228","314.3997","0","999","934","0.00010571","0.00001778","0","3103480","0 SPACEBEE-111","1 48904U 21059AB  21238.62026520  .00001778  00000-0  10571-3 0  9991","2 48904  97.5229   6.5584 0012125  45.8228 314.3997 15.12513895  9341","2021-059AB","48904","6906.673","95.206","536.913","520.164","1"
"GENERATED VIA SPACETRACK.ORG API","18 SPCS","48904","SPACEBEE-111","PAYLOAD","U","21059AB","2021-08-27 08:21:06","415488","15.12516453","0.0012065","97.5229","7.2756","43.4823","316.7357","0","999","945","0.00010728","0.00001806","0","3103885","0 SPACEBEE-111","1 48904U 21059AB  21239.34799092  .00001806  00000-0  10728-3 0  9998","2 48904  97.5229   7.2756 0012065  43.4823 316.7357 15.12516453  9459","2021-059AB","48904","6906.666","95.206","536.864","520.198","1"
"GENERATED VIA SPACETRACK.ORG API","18 SPCS","48904","SPACEBEE-111","PAYLOAD","U","21059AB","2021-08-27 19:27:58","43808","15.12517733","0.0012027","97.523","7.732","41.9975","318.2176","0","999","952","0.00010411","0.00001751","0","3104038","0 SPACEBEE-111","1 48904U 21059AB  21239.81108847  .00001751  00000-0  10411-3 0  9990","2 48904  97.5230   7.7320 0012027  41.9975 318.2176 15.12517733  9528","2021-059AB","48904","6906.662","95.205","536.833","520.220","1"
"GENERATED VIA SPACETRACK.ORG API","18 SPCS","48904","SPACEBEE-111","PAYLOAD","U","21059AB","2021-08-28 08:10:05","273184","15.12526516","0.0012","97.5231","8.2537","40.2099","320.0017","0","999","960","0.00016749","0.00002857","0","3104340","0 SPACEBEE-111","1 48904U 21059AB  21240.34033881  .00002857  00000-0  16749-3 0  9993","2 48904  97.5231   8.2537 0012000  40.2099 320.0017 15.12526516  9608","2021-059AB","48904","6906.635","95.205","536.788","520.212","1"
"GENERATED VIA SPACETRACK.ORG API","18 SPCS","48904","SPACEBEE-111","PAYLOAD","U","21059AB","2021-08-28 14:31:08","899968","15.12531375","0.0011983","97.5231","8.5145","39.3596","320.8504","0","999","964","0.00020553","0.00003521","0","3104445","0 SPACEBEE-111","1 48904U 21059AB  21240.60496412  .00003521  00000-0  20553-3 0  9992","2 48904  97.5231   8.5145 0011983  39.3596 320.8504 15.12531375  9648","2021-059AB","48904","6906.620","95.205","536.761","520.209","1"
"GENERATED VIA SPACETRACK.ORG API","18 SPCS","48904","SPACEBEE-111","PAYLOAD","U","21059AB","2021-08-28 20:52:12","585504","15.12530645","0.0011962","97.5231","8.7753","38.5177","321.6905","0","999","968","0.00018605","0.00003181","0","3104555","0 SPACEBEE-111","1 48904U 21059AB  21240.86959011  .00003181  00000-0  18605-3 0  9996","2 48904  97.5231   8.7753 0011962  38.5177 321.6905 15.12530645  9685","2021-059AB","48904","6906.623","95.205","536.749","520.226","1"
"GENERATED VIA SPACETRACK.ORG API","18 SPCS","48904","SPACEBEE-111","PAYLOAD","U","21059AB","2021-08-29 07:59:04","147296","15.12531526","0.0011942","97.5231","9.2319","37.3917","322.8142","0","999","975","0.000225","0.00003861","0","3104882","0 SPACEBEE-111","1 48904U 21059AB  21241.33268689  .00003861  00000-0  22500-3 0  9997","2 48904  97.5231   9.2319 0011942  37.3917 322.8142 15.12531526  9759","2021-059AB","48904","6906.620","95.205","536.733","520.237","1"
"GENERATED VIA SPACETRACK.ORG API","18 SPCS","48904","SPACEBEE-111","PAYLOAD","U","21059AB","2021-08-29 07:59:04","147296","15.12531526","0.0011942","97.5231","9.2319","37.3917","322.8142","0","999","975","0.000225","0.00003861","0","3105060","0 SPACEBEE-111","1 48904U 21059AB  21241.33268689  .00003861  00000-0  22500-3 0  9997","2 48904  97.5231   9.2319 0011942  37.3917 322.8142 15.12531526  9759","2021-059AB","48904","6906.620","95.205","536.733","520.237","1"
"GENERATED VIA SPACETRACK.ORG API","18 SPCS","48904","SPACEBEE-111","PAYLOAD","U","21059AB","2021-08-29 22:16:27","246432","15.12533816","0.0011888","97.5231","9.8188","35.4859","324.716","0","999","984","0.00021387","0.00003667","0","3105271","0 SPACEBEE-111","1 48904U 21059AB  21241.92809313  .00003667  00000-0  21387-3 0  9993","2 48904  97.5231   9.8188 0011888  35.4859 324.7160 15.12533816  9847","2021-059AB","48904","6906.613","95.204","536.688","520.267","1"
"GENERATED VIA SPACETRACK.ORG API","18 SPCS","48904","SPACEBEE-111","PAYLOAD","U","21059AB","2021-08-30 07:48:02","601504","15.12535589","0.0011863","97.523","10.2101","34.202","325.9973","0","999","990","0.00021109","0.00003619","0","3105635","0 SPACEBEE-111","1 48904U 21059AB  21242.32503011  .00003619  00000-0  21109-3 0  9993","2 48904  97.5230  10.2101 0011863  34.2020 325.9973 15.12535589  9908","2021-059AB","48904","6906.607","95.204","536.666","520.279","1"
"GENERATED VIA SPACETRACK.ORG API","18 SPCS","48904","SPACEBEE-111","PAYLOAD","U","21059AB","2021-08-30 18:54:53","809056","15.12537695","0.0011802","97.523","10.6665","32.7058","327.4901","0","999","997","0.0002099","0.00003598","0","3105733","0 SPACEBEE-111","1 48904U 21059AB  21242.78812279  .00003598  00000-0  20990-3 0  9995","2 48904  97.5230  10.6665 0011802  32.7058 327.4901 15.12537695  9979","2021-059AB","48904","6906.601","95.204","536.617","520.315","1"
"GENERATED VIA SPACETRACK.ORG API","18 SPCS","48904","SPACEBEE-111","PAYLOAD","U","21059AB","2021-08-30 20:30:09","888768","15.12533299","0.0011796","97.523","10.7317","32.5472","327.6483","0","999","998","0.00014564","0.00002476","0","3105811","0 SPACEBEE-111","1 48904U 21059AB  21242.85428112  .00002476  00000-0  14564-3 0  9996","2 48904  97.5230  10.7317 0011796  32.5472 327.6483 15.12533299  9988","2021-059AB","48904","6906.614","95.205","536.626","520.332","1"
"GENERATED VIA SPACETRACK.ORG API","18 SPCS","48904","SPACEBEE-111","PAYLOAD","U","21059AB","2021-08-31 02:51:13","431744","15.12534204","0.0011773","97.523","10.9925","31.6478","328.5458","0","999","1002","0.00014379","0.00002444","0","3106057","0 SPACEBEE-111","1 48904U 21059AB  21243.11890546  .00002444  00000-0  14379-3 0  9999","2 48904  97.5230  10.9925 0011773  31.6478 328.5458 15.12534204 10022","2021-059AB","48904","6906.612","95.204","536.608","520.346","1"
"GENERATED VIA SPACETRACK.ORG API","18 SPCS","48904","SPACEBEE-111","PAYLOAD","U","21059AB","2021-08-31 07:37:01","130016","15.12534193","0.0011757","97.523","11.1881","31.0041","329.1882","0","999","1005","0.00013407","0.00002274","0","3106156","0 SPACEBEE-111","1 48904U 21059AB  21243.31737419  .00002274  00000-0  13407-3 0  9992","2 48904  97.5230  11.1881 0011757  31.0041 329.1882 15.12534193 10056","2021-059AB","48904","6906.612","95.204","536.597","520.357","1"
"GENERATED VIA SPACETRACK.ORG API","18 SPCS","48904","SPACEBEE-111","PAYLOAD","U","21059AB","2021-08-31 07:37:01","130016","15.12534193","0.0011757","97.523","11.1881","31.0041","329.1882","0","999","1005","0.00013407","0.00002274","0","3106313","0 SPACEBEE-111","1 48904U 21059AB  21243.31737419  .00002274  00000-0  13407-3 0  9992","2 48904  97.5230  11.1881 0011757  31.0041 329.1882 15.12534193 10056","2021-059AB","48904","6906.612","95.204","536.597","520.357","1"
"GENERATED VIA SPACETRACK.ORG API","18 SPCS","48904","SPACEBEE-111","PAYLOAD","U","21059AB","2021-08-31 21:54:24","106464","15.12535501","0.0011694","97.523","11.7749","29.1034","331.0846","0","999","1014","0.00012534","0.00002122","0","3106454","0 SPACEBEE-111","1 48904U 21059AB  21243.91277901  .00002122  00000-0  12534-3 0  9995","2 48904  97.5230  11.7749 0011694  29.1034 331.0846 15.12535501 10141","2021-059AB","48904","6906.608","95.204","536.549","520.396","1"
"GENERATED VIA SPACETRACK.ORG API","18 SPCS","48904","SPACEBEE-111","PAYLOAD","U","21059AB","2021-09-01 07:25:59","336256","15.12537226","0.0011648","97.523","12.1661","27.7182","332.4667","0","999","1020","0.00013123","0.00002225","0","3106942","0 SPACEBEE-111","1 48904U 21059AB  21244.30971454  .00002225  00000-0  13123-3 0  9992","2 48904  97.5230  12.1661 0011648  27.7182 332.4667 15.12537226 10205","2021-059AB","48904","6906.602","95.204","536.512","520.423","1"
